0 TRANSIT 5E-5 DEB
1 28248U 64083M   13282.47404105  .00015291  00000-0  10729-1 0  9769
2 28248 089.9022 176.8973 0180893 118.6973 298.1786 13.90619727474530
0 TRANSIT 5E-5 DEB
1 28248U 64083M   13283.20719880  .00013337  00000-0  93519-2 0  9779
2 28248 089.9025 176.8895 0181254 116.3869 008.5850 13.90633903474635
0 TRANSIT 5E-5 DEB
1 28248U 64083M   13286.16273259  .00011743  00000-0  82092-2 0  9797
2 28248 089.9039 176.8588 0182583 107.1511 045.2220 13.90697423475049
0 TRANSIT 5E-5 DEB
1 28248U 64083M   13287.43866259  .00012530  00000-0  87481-2 0  9800
2 28248 089.9045 176.8456 0183117 103.2131 313.2318 13.90723411475222
0 TRANSIT 5E-5 DEB
1 28248U 64083M   13288.44652343  .00017313  00000-0  12067-1 0  9811
2 28248 089.9047 176.8354 0183579 100.0961 319.2537 13.90758825475360
0 TRANSIT 5E-5 DEB
1 28248U 64083M   13289.67168531  .00016519  00000-0  11498-1 0  9823
2 28248 089.9048 176.8229 0184154 096.2983 333.3835 13.90788687475538
0 TRANSIT 5E-5 DEB
1 28248U 64083M   13291.19325413  .00014577  00000-0  10130-1 0  9832
2 28248 089.9051 176.8071 0184819 091.6001 031.7370 13.90831121475743
0 TRANSIT 5E-5 DEB
1 28248U 64083M   13292.40257503  .00014076  00000-0  97703-2 0  9848
2 28248 089.9052 176.7948 0185299 087.8868 326.8322 13.90859937475916
0 TRANSIT 5E-5 DEB
1 28248U 64083M   13293.41079528  .00014817  00000-0  10273-1 0  9859
2 28248 089.9054 176.7849 0185676 084.7988 335.1067 13.90885668476051
0 TRANSIT 5E-5 DEB
1 28248U 64083M   13294.86324280  .00016900  00000-0  11698-1 0  9865
2 28248 089.9056 176.7702 0186210 080.3573 047.8337 13.90923077476254
0 TRANSIT 5E-5 DEB
1 28248U 64083M   13295.87098744  .00016574  00000-0  11460-1 0  9875
2 28248 089.9058 176.7598 0186618 077.2852 053.9418 13.90950020476397
